$$SOE
2459580.500000000, A.D. 2022-Jan-01 00:00:00.0000, 4.649034723782825E+08, -2.581785718981076E+08, 5.741736025697261E+06,
2459587.500000000, A.D. 2022-Jan-08 00:00:00.0000, 4.698426788577681E+08, -2.509152724064057E+08, 5.297174279606372E+06,
2459594.500000000, A.D. 2022-Jan-15 00:00:00.0000, 4.746317752022066E+08, -2.435714135571720E+08, 4.850837263867423E+06,
2459601.500000000, A.D. 2022-Jan-22 00:00:00.0000, 4.792699561089705E+08, -2.361497204345366E+08, 4.402874441423520E+06,
2459608.500000000, A.D. 2022-Jan-29 00:00:00.0000, 4.837564516909483E+08, -2.286529049237701E+08, 3.953434388074994E+06,
2459615.500000000, A.D. 2022-Feb-05 00:00:00.0000, 4.880905244022017E+08, -2.210836666440448E+08, 3.502664971711859E+06,
2459622.500000000, A.D. 2022-Feb-12 00:00:00.0000, 4.922714681713685E+08, -2.134446949644071E+08, 3.050713246526361E+06,
2459629.500000000, A.D. 2022-Feb-19 00:00:00.0000, 4.962986084173228E+08, -2.057386697322478E+08, 2.597725377116159E+06,
2459636.500000000, A.D. 2022-Feb-26 00:00:00.0000, 5.001713016354514E+08, -1.979682614361417E+08, 2.143846653446093E+06,
2459643.500000000, A.D. 2022-Mar-05 00:00:00.0000, 5.038889347133826E+08, -1.901361314189753E+08, 1.689221531329349E+06,
2459650.500000000, A.D. 2022-Mar-12 00:00:00.0000, 5.074509241974738E+08, -1.822449322060526E+08, 1.233993672346786E+06,
2459657.500000000, A.D. 2022-Mar-19 00:00:00.0000, 5.108567155806620E+08, -1.742973079190924E+08, 7.783059785996526E+05,
2459664.500000000, A.D. 2022-Mar-26 00:00:00.0000, 5.141057826336619E+08, -1.662958947810844E+08, 3.223006193904653E+05,
2459671.500000000, A.D. 2022-Apr-02 00:00:00.0000, 5.171976268467880E+08, -1.582433217669551E+08, -1.338809613095671E+05,
2459678.500000000, A.D. 2022-Apr-09 00:00:00.0000, 5.201317772536354E+08, -1.501422113942249E+08, -5.900980815104991E+05,
2459685.500000000, A.D. 2022-Apr-16 00:00:00.0000, 5.229077909929719E+08, -1.419951799981470E+08, -1.046210881558120E+06,
2459692.500000000, A.D. 2022-Apr-23 00:00:00.0000, 5.255252533403146E+08, -1.338048364057133E+08, -1.502080203312702E+06,
2459699.500000000, A.D. 2022-Apr-30 00:00:00.0000, 5.279837753399421E+08, -1.255737812535893E+08, -1.957567300160155E+06,
2459706.500000000, A.D. 2022-May-07 00:00:00.0000, 5.302829920995544E+08, -1.173046089235605E+08, -2.412533820247784E+06,
2459713.500000000, A.D. 2022-May-14 00:00:00.0000, 5.324225631360419E+08, -1.089999090564484E+08, -2.866841942250781E+06,
2459720.500000000, A.D. 2022-May-21 00:00:00.0000, 5.344021727412719E+08, -1.006622668850495E+08, -3.320354415387630E+06,
2459727.500000000, A.D. 2022-May-28 00:00:00.0000, 5.362215298892065E+08, -9.229426334466825E+07, -3.772934538114689E+06,
2459734.500000000, A.D. 2022-Jun-04 00:00:00.0000, 5.378803679611866E+08, -8.389847527399912E+07, -4.224446126491308E+06,
2459741.500000000, A.D. 2022-Jun-11 00:00:00.0000, 5.393784444333904E+08, -7.547747570394959E+07, -4.674753485311281E+06,
2459748.500000000, A.D. 2022-Jun-18 00:00:00.0000, 5.407155405643404E+08, -6.703383422055250E+07, -5.123721384447824E+06,
2459755.500000000, A.D. 2022-Jun-25 00:00:00.0000, 5.418914611112846E+08, -5.857011743423489E+07, -5.571215045763668E+06,
2459762.500000000, A.D. 2022-Jul-02 00:00:00.0000, 5.429060342093092E+08, -5.008888962020672E+07, -6.017100158153500E+06,
2459769.500000000, A.D. 2022-Jul-09 00:00:00.0000, 5.437591118034616E+08, -4.159271335215010E+07, -6.461242941917036E+06,
2459776.500000000, A.D. 2022-Jul-16 00:00:00.0000, 5.444505705789497E+08, -3.308414904546081E+07, -6.903510168690652E+06,
2459783.500000000, A.D. 2022-Jul-23 00:00:00.0000, 5.449803111924731E+08, -2.456575333172391E+07, -7.343768928591451E+06,
2459790.500000000, A.D. 2022-Jul-30 00:00:00.0000, 5.453482558903481E+08, -1.604007961912298E+07, -7.781886426081108E+06,
2459797.500000000, A.D. 2022-Aug-06 00:00:00.0000, 5.455543481117555E+08, -7.509680191556904E+06, -8.217730081505373E+06,
2459804.500000000, A.D. 2022-Aug-13 00:00:00.0000, 5.455985532530200E+08, 1.022892908096170E+06, -8.651167637444882E+06,
2459811.500000000, A.D. 2022-Aug-20 00:00:00.0000, 5.454808590234416E+08, 9.555087707424035E+06, -9.082067166748239E+06,
2459818.500000000, A.D. 2022-Aug-27 00:00:00.0000, 5.452012754608630E+08, 1.808435212013264E+07, -9.510297047578514E+06,
2459825.500000000, A.D. 2022-Sep-03 00:00:00.0000, 5.447598348548518E+08, 2.660813363737466E+07, -9.935725937003801E+06,
2459832.500000000, A.D. 2022-Sep-10 00:00:00.0000, 5.441565916674995E+08, 3.512387891868063E+07, -1.035822274924639E+07,
2459839.500000000, A.D. 2022-Sep-17 00:00:00.0000, 5.433916224811459E+08, 4.362903328076559E+07, -1.077765664130736E+07,
2459846.500000000, A.D. 2022-Sep-24 00:00:00.0000, 5.424650260333534E+08, 5.212104003330273E+07, -1.119389701562157E+07,
2459853.500000000, A.D. 2022-Oct-01 00:00:00.0000, 5.413769235788437E+08, 6.059733963921952E+07, -1.160681356363860E+07,
2459860.500000000, A.D. 2022-Oct-08 00:00:00.0000, 5.401274599848249E+08, 6.905536922153005E+07, -1.201627634516899E+07,
2459867.500000000, A.D. 2022-Oct-15 00:00:00.0000, 5.387168046268842E+08, 7.749256361668202E+07, -1.242215572015484E+07,
2459874.500000000, A.D. 2022-Oct-22 00:00:00.0000, 5.371451499045988E+08, 8.590635629175052E+07, -1.282432207047979E+07,
2459881.500000000, A.D. 2022-Oct-29 00:00:00.0000, 5.354127098759363E+08, 9.429417753201176E+07, -1.322264575315540E+07,
2459888.500000000, A.D. 2022-Nov-05 00:00:00.0000, 5.335197211094245E+08, 1.026534526398931E+08, -1.361699725376147E+07,
2459895.500000000, A.D. 2022-Nov-12 00:00:00.0000, 5.314664437890022E+08, 1.109816014131134E+08, -1.400724725656766E+07,
2459902.500000000, A.D. 2022-Nov-19 00:00:00.0000, 5.292531623526374E+08, 1.192760379484758E+08, -1.439326664348756E+07,
2459909.500000000, A.D. 2022-Nov-26 00:00:00.0000, 5.268801859274608E+08, 1.275341703743461E+08, -1.477492647853123E+07,
2459916.500000000, A.D. 2022-Dec-03 00:00:00.0000, 5.243478487278212E+08, 1.357534005006308E+08, -1.515209799403299E+07,
2459923.500000000, A.D. 2022-Dec-10 00:00:00.0000, 5.216565104620969E+08, 1.439311234053628E+08, -1.552465258136594E+07,
2459930.500000000, A.D. 2022-Dec-17 00:00:00.0000, 5.188065567733336E+08, 1.520647269334455E+08, -1.589246179048280E+07,
2459937.500000000, A.D. 2022-Dec-24 00:00:00.0000, 5.157983998235983E+08, 1.601515910423044E+08, -1.625539735371324E+07,
2459944.500000000, A.D. 2022-Dec-31 00:00:00.0000, 5.126324793801897E+08, 1.681890871023578E+08, -1.661333125786863E+07,
2459951.500000000, A.D. 2023-Jan-07 00:00:00.0000, 5.093092645262612E+08, 1.761745781149645E+08, -1.696613579728295E+07,
2459958.500000000, A.D. 2023-Jan-14 00:00:00.0000, 5.058292540285233E+08, 1.841054203458476E+08, -1.731368338667002E+07,
2459965.500000000, A.D. 2023-Jan-21 00:00:00.0000, 5.021929747189224E+08, 1.919789632030045E+08, -1.765584633386513E+07,
2459972.500000000, A.D. 2023-Jan-28 00:00:00.0000, 4.984009815599970E+08, 1.997925471636706E+08, -1.799249692499041E+07,
2459979.500000000, A.D. 2023-Feb-04 00:00:00.0000, 4.944538591851193E+08, 2.075435027778279E+08, -1.832350755554383E+07,
2459986.500000000, A.D. 2023-Feb-11 00:00:00.0000, 4.903522231179780E+08, 2.152291505551889E+08, -1.864875075851502E+07,
2459993.500000000, A.D. 2023-Feb-18 00:00:00.0000, 4.860967206078915E+08, 2.228468009133499E+08, -1.896809919093016E+07,
2460000.500000000, A.D. 2023-Feb-25 00:00:00.0000, 4.816880313436450E+08, 2.303937540266428E+08, -1.928142561605640E+07,
2460007.500000000, A.D. 2023-Mar-04 00:00:00.0000, 4.771268681483380E+08, 2.378672995963873E+08, -1.958860288898580E+07,
2460014.500000000, A.D. 2023-Mar-11 00:00:00.0000, 4.724139776848850E+08, 2.452647165452995E+08, -1.988950394805686E+07,
2460021.500000000, A.D. 2023-Mar-18 00:00:00.0000, 4.675501412209539E+08, 2.525832725887782E+08, -2.018400182037038E+07,
2460028.500000000, A.D. 2023-Mar-25 00:00:00.0000, 4.625361756587473E+08, 2.598202236376775E+08, -2.047196966384152E+07,
2460035.500000000, A.D. 2023-Apr-01 00:00:00.0000, 4.573729352560285E+08, 2.669728134270701E+08, -2.075328085256493E+07,
2460042.500000000, A.D. 2023-Apr-08 00:00:00.0000, 4.520613134235269E+08, 2.740382745965409E+08, -2.102780894888464E+07,
2460049.500000000, A.D. 2023-Apr-15 00:00:00.0000, 4.466022422616122E+08, 2.810138301176578E+08, -2.129542743801948E+07,
2460056.500000000, A.D. 2023-Apr-22 00:00:00.0000, 4.409966916473306E+08, 2.878966920193163E+08, -2.155600964061190E+07,
2460063.500000000, A.D. 2023-Apr-29 00:00:00.0000, 4.352456706084975E+08, 2.946840596649051E+08, -2.180942887018637E+07,
2460070.500000000, A.D. 2023-May-06 00:00:00.0000, 4.293502292246349E+08, 3.013731193635340E+08, -2.205555852865167E+07,
2460077.500000000, A.D. 2023-May-13 00:00:00.0000, 4.233114600782745E+08, 3.079610444237790E+08, -2.229427212344728E+07,
2460084.500000000, A.D. 2023-May-20 00:00:00.0000, 4.171304994915564E+08, 3.144449951610519E+08, -2.252544326823051E+07,
2460091.500000000, A.D. 2023-May-27 00:00:00.0000, 4.108085287424688E+08, 3.208221188313625E+08, -2.274894568762057E+07,
2460098.500000000, A.D. 2023-Jun-03 00:00:00.0000, 4.043467753191285E+08, 3.270895495197252E+08, -2.296465322956085E+07,
2460105.500000000, A.D. 2023-Jun-10 00:00:00.0000, 3.977465142366688E+08, 3.332444079718567E+08, -2.317243988902569E+07,
2460112.500000000, A.D. 2023-Jun-17 00:00:00.0000, 3.910090695066091E+08, 3.392838013116875E+08, -2.337217985656986E+07,
2460119.500000000, A.D. 2023-Jun-24 00:00:00.0000, 3.841358160797651E+08, 3.452048227031165E+08, -2.356374761696662E+07,
2460126.500000000, A.D. 2023-Jul-01 00:00:00.0000, 3.771281825169583E+08, 3.510045517865004E+08, -2.374701805393201E+07,
2460133.500000000, A.D. 2023-Jul-08 00:00:00.0000, 3.699876527134020E+08, 3.566800567137380E+08, -2.392186634049140E+07,
2460140.500000000, A.D. 2023-Jul-15 00:00:00.0000, 3.627157653994431E+08, 3.622283949557715E+08, -2.408816772922391E+07,
2460147.500000000, A.D. 2023-Jul-22 00:00:00.0000, 3.553141149408400E+08, 3.676466118527716E+08, -2.424579765027516E+07,
$$EOE